[{"OBJECT_NAME":"SITRO-AIS 28","OBJECT_ID":"2024-039U","EPOCH":"2026-03-09T22:53:08.846304","MEAN_MOTION":14.92876764,"ECCENTRICITY":0.01445021,"INCLINATION":95.3938,"RA_OF_ASC_NODE":167.1162,"ARG_OF_PERICENTER":314.581,"MEAN_ANOMALY":44.3693,"EPHEMERIS_TYPE":0,"CLASSIFICATION_TYPE":"U","NORAD_CAT_ID":59071,"ELEMENT_SET_NO":999,"REV_AT_EPOCH":10993,"BSTAR":0.0004111707,"MEAN_MOTION_DOT":5.19e-5,"MEAN_MOTION_DDOT":0},{"OBJECT_NAME":"SL-8 DEB","OBJECT_ID":"1965-020EN","EPOCH":"2026-03-09T21:30:01.358784","MEAN_MOTION":14.21304929,"ECCENTRICITY":0.03828379,"INCLINATION":56.171,"RA_OF_ASC_NODE":335.2447,"ARG_OF_PERICENTER":331.0415,"MEAN_ANOMALY":26.9803,"EPHEMERIS_TYPE":0,"CLASSIFICATION_TYPE":"U","NORAD_CAT_ID":3038,"ELEMENT_SET_NO":999,"REV_AT_EPOCH":21169,"BSTAR":0.0030592028,"MEAN_MOTION_DOT":0.00014042,"MEAN_MOTION_DDOT":0}]
